STARLINK-34232          
1 65019U 25161E   25222.58334491 -.00987565  00000+0 -49652-2 0  9995
2 65019  53.1546 201.2898 0000907  71.2397  63.5814 15.83439087  3044
STARLINK-34772          
1 65020U 25161F   25222.58334491 -.00993607  00000+0 -49987-2 0  9992
2 65020  53.1545 201.2847 0000929  69.1533  68.1526 15.83440993  3040
STARLINK-34778          
1 65021U 25161G   25222.58334491 -.00995411  00000+0 -50106-2 0  9993
2 65021  53.1545 201.2788 0000722  69.3513  70.6819 15.83435767  2883
STARLINK-34789          
1 65022U 25161H   25222.58334491 -.01001833  00000+0 -50487-2 0  9993
2 65022  53.1545 201.2729 0000988  61.7786  81.1134 15.83425417  2889
STARLINK-34858          
1 65023U 25161J   25222.58334491 -.01014507  00000+0 -51198-2 0  9996
2 65023  53.1546 201.2673 0000907  63.0753  82.3640 15.83428707  2889
STARLINK-34773          
1 65024U 25161K   25222.58334491 -.01020396  00000+0 -51547-2 0  9998
2 65024  53.1546 201.2616 0000939  61.4451  86.7641 15.83422278  2885
STARLINK-34727          
1 65025U 25161L   25222.58334491 -.01027719  00000+0 -51972-2 0  9997
2 65025  53.1546 201.2559 0000906  69.0280  81.8267 15.83419022  2940
STARLINK-34804          
1 65026U 25161M   25222.58334491 -.01033902  00000+0 -52346-2 0  9995
2 65026  53.1546 201.2505 0000922  65.9419  87.6744 15.83410088  2935
STARLINK-34655          
1 65027U 25161N   25222.58334491 -.01038011  00000+0 -52579-2 0  9990
2 65027  53.1546 201.2450 0000762  67.2681  88.8299 15.83412243  2936
STARLINK-34807          
1 65028U 25161P   25222.58334491 -.01054616  00000+0 -53535-2 0  9993
2 65028  53.1547 201.2394 0000827  70.8964  87.9760 15.83409070  2938
STARLINK-34731          
1 65029U 25161Q   25222.58334491 -.01074567  00000+0 -54685-2 0  9998
2 65029  53.1546 201.2337 0000860  67.1084  94.4596 15.83407396  2933
STARLINK-34614          
1 65030U 25161R   25222.58334491 -.01112724  00000+0 -55748-2 0  9999
2 65030  53.1544 201.2280 0000764  67.7330  96.4073 15.83409543  2931
STARLINK-34677          
1 65031U 25161S   25222.58334491 -.01129426  00000+0 -56704-2 0  9990
2 65031  53.1546 201.2225 0000757  71.8893  94.9439 15.83401049  2937
STARLINK-34656          
1 65032U 25161T   25222.58334491 -.01143214  00000+0 -57508-2 0  9995
2 65032  53.1546 201.2166 0000728  70.1723  99.3508 15.83389979  2937
STARLINK-34671          
1 65033U 25161U   25222.58334491 -.01150530  00000+0 -57954-2 0  9990
2 65033  53.1544 201.2107 0000813  69.1699 102.9821 15.83376617  2930
STARLINK-34610          
1 65034U 25161V   25222.58334491 -.01161283  00000+0 -58592-2 0  9997
2 65034  53.1545 201.2054 0000995  64.6120 110.2136 15.83363391  2838
STARLINK-34286          
1 65035U 25161W   25222.58334491 -.01164380  00000+0 -58841-2 0  9996
2 65035  53.1546 201.1999 0000826  68.1243 109.4584 15.83338677  3045
STARLINK-34770          
1 65036U 25161X   25222.58334491 -.01172061  00000+0 -59321-2 0  9996
2 65036  53.1545 201.1943 0000727  68.6159 111.5984 15.83323662  2949
STARLINK-34776          
1 65037U 25161Y   25222.58334491 -.01182207  00000+0 -59908-2 0  9991
2 65037  53.1546 201.1892 0000861  72.4995 110.2029 15.83318464  3046
STARLINK-34827          
1 65038U 25161Z   25222.58334491 -.01189066  00000+0 -60349-2 0  9993
2 65038  53.1544 201.1837 0000848  66.3510 119.0078 15.83300929  3042
STARLINK-34721          
1 65039U 25161AA  25222.58334491 -.01193870  00000+0 -60682-2 0  9992
2 65039  53.1544 201.1780 0000899  71.4315 116.6121 15.83279983  2941
STARLINK-34819          
1 65040U 25161AB  25222.58334491 -.01202978  00000+0 -61262-2 0  9999
2 65040  53.1545 201.1724 0000739  74.6719 116.1032 15.83261203  3042
STARLINK-34820          
1 65041U 25161AC  25222.58334491 -.01214072  00000+0 -61947-2 0  9998
2 65041  53.1545 201.1669 0000866  78.1653 115.3018 15.83243342  3047
STARLINK-34824          
1 65042U 25161AD  25222.58334491 -.01224711  00000+0 -62642-2 0  9993
2 65042  53.1544 201.1606 0000843  72.3308 124.0433 15.83215730  3044
HULIANWANG DIGUI 6A     
1 65043U 25162A   25222.60476106 -.00000019  00000+0  83005-4 0  9997
2 65043  50.0018 329.1588 0008005 302.6250  57.3881 14.04172912  1588
HULIANWANG DIGUI 6B     
1 65044U 25162B   25222.62975236  .00000009  00000+0  10000-3 0  9990
2 65044  50.0089 329.0231 0007706 292.7859 207.3261 14.04724788  1596
HULIANWANG DIGUI 6C     
1 65045U 25162C   25222.62885885  .00000010  00000+0  99198-4 0  9999
2 65045  49.9998 329.0167 0007599 306.1152 195.5606 14.05503231  1597
HULIANWANG DIGUI 6D     
1 65046U 25162D   25222.60029720  .00000010  00000+0  98392-4 0  9991
2 65046  50.0010 329.1338 0006262 303.0854  56.9450 14.06045976  1593
HULIANWANG DIGUI 6E     
1 65047U 25162E   25222.59976557  .00000003  00000+0  94270-4 0  9992
2 65047  50.0037 329.1352 0007880 312.1629  47.8607 14.06115246  1598
HULIANWANG DIGUI 6F     
1 65048U 25162F   25222.59874760  .00000021  00000+0  10468-3 0  9992
2 65048  50.0070 329.1349 0005886 310.3516  49.6875 14.06242146  1598
HULIANWANG DIGUI 6G     
1 65049U 25162G   25222.59842054  .00000014  00000+0  10016-3 0  9995
2 65049  50.0087 329.1359 0006984 316.2381  43.7970 14.06275663  1594
HULIANWANG DIGUI 6H     
1 65050U 25162H   25222.59763441  .00000004  00000+0  94135-4 0  9993
2 65050  50.0052 329.1263 0007174 320.9605  39.0782 14.06380499  1598
HULIANWANG DIGUI 6J     
1 65051U 25162J   25222.59726665  .00000001  00000+0  92547-4 0  9993
2 65051  50.0062 329.1261 0005666 317.7059  42.3409 14.06427555  1597
CZ-8A R/B               
1 65052U 25162K   25222.61781606 -.00000013  00000+0  54175-4 0  9992
2 65052  50.0032 327.1890 0118723 123.1173 238.1203 14.30549903  1626
NISAR                   
1 65053U 25163A   25222.62316048  .00000174  00000+0  61314-4 0  9999
2 65053  98.4437  49.4474 0012460 234.9430 125.0593 14.45887084  1607
GSLV R/B                
1 65054U 25163B   25222.61086594  .00000719  00000+0  20762-3 0  9995
2 65054  98.4381  49.4524 0010743 273.0404  86.9559 14.47499458  1602
PRSC-S1                 
1 65055U 25164A   25222.54357438  .00004180  00000+0  29868-3 0  9999
2 65055  41.1290 239.3005 0006114 297.5534  62.4658 15.05341619  1556
STARLINK-34788          
1 65056U 25165A   25222.58334491 -.01816702  00000+0 -19161-1 0  9996
2 65056  97.6035 294.8133 0001463  87.1353 329.2618 15.67582833  2657
STARLINK-34745          
1 65057U 25165B   25222.58334491 -.01822967  00000+0 -19234-1 0  9998
2 65057  97.6035 294.8141 0001491  85.3121 333.0058 15.67586212  2657
STARLINK-34779          
1 65058U 25165C   25222.58334491 -.01818806  00000+0 -19187-1 0  9993
2 65058  97.6037 294.8152 0001439  82.9157 337.3246 15.67582464  2657
STARLINK-34803          
1 65059U 25165D   25222.58334491 -.01859302  00000+0 -19242-1 0  9992
2 65059  97.6038 294.8162 0001453  85.6334 336.5240 15.67587454  2652
STARLINK-34717          
1 65060U 25165E   25222.58334491 -.01860109  00000+0 -19252-1 0  9992
2 65060  97.6040 294.8170 0001439  82.3637 341.7157 15.67586795  2652
STARLINK-34750          
1 65061U 25165F   25222.58334491 -.01819494  00000+0 -19194-1 0  9999
2 65061  97.6038 294.8178 0001431  86.6093 339.3906 15.67584257  2659
STARLINK-34708          
1 65062U 25165G   25222.58334491 -.01822019  00000+0 -19223-1 0  9990
2 65062  97.6038 294.8188 0001485  82.7810 345.1396 15.67585646  2655
STARLINK-34798          
1 65063U 25165H   25222.58334491 -.01821421  00000+0 -19217-1 0  9990
2 65063  97.6037 294.8197 0001478  81.3241 348.5188 15.67584143  2657
STARLINK-34793          
1 65064U 25165J   25222.58334491 -.01822380  00000+0 -19227-1 0  9997
2 65064  97.6039 294.8206 0001501  79.7066 352.0547 15.67585931  2491
STARLINK-34806          
1 65065U 25165K   25222.58334491 -.01862224  00000+0 -19273-1 0  9990
2 65065  97.6038 294.8218 0001538  89.3265 344.3526 15.67590327  2656
STARLINK-34739          
1 65066U 25165L   25222.58334491 -.01819590  00000+0 -19194-1 0  9991
2 65066  97.6034 294.8224 0001492  86.5684 349.0337 15.67585007  2441
STARLINK-34802          
1 65067U 25165M   25222.58334491 -.01862549  00000+0 -19278-1 0  9997
2 65067  97.6037 294.8233 0001531  80.8368 356.6859 15.67588840  2659
STARLINK-34810          
1 65068U 25165N   25222.58334491 -.01860001  00000+0 -19250-1 0  9999
2 65068  97.6038 294.8243 0001471  80.7586 358.6844 15.67587422  2657
STARLINK-34809          
1 65069U 25165P   25222.58334491 -.01860030  00000+0 -19250-1 0  9992
2 65069  97.6039 294.8250 0001559  85.5347 355.8305 15.67586931  2657
STARLINK-34794          
1 65070U 25165Q   25222.58334491 -.01859498  00000+0 -19245-1 0  9994
2 65070  97.6040 294.8258 0001534  81.5549   1.7320 15.67585695  2652
STARLINK-34805          
1 65071U 25165R   25222.58334491 -.01823243  00000+0 -19237-1 0  9995
2 65071  97.6038 294.8268 0001513  81.0823   4.1233 15.67586370  2659
STARLINK-34735          
1 65072U 25165S   25222.58334491 -.01862907  00000+0 -19282-1 0  9996
2 65072  97.6038 294.8276 0001543  85.6033   1.5230 15.67588922  2658
STARLINK-34781          
1 65073U 25165T   25222.58334491 -.01820209  00000+0 -19202-1 0  9998
2 65073  97.6039 294.8282 0001570  88.8426   0.2072 15.67583428  2654
STARLINK-34780          
1 65074U 25165U   25222.58334491 -.01863845  00000+0 -19291-1 0  9990
2 65074  97.6041 294.8292 0001644  82.3050   8.6610 15.67590283  2650
CREW DRAGON 11          
1 65077U 25166A   25222.47614207  .00009444  00000+0  17061-3 0  9997
2 65077  51.6345  37.9846 0001277 177.5655 182.5340 15.50438697522494
HULIANWANG DIGUI 7A     
1 65106U 25168A   25222.62285755 -.00000093  00000+0  39399-4 0  9992
2 65106  50.0048  33.0628 0010216 245.0009 114.9832 13.98138346   867
HULIANWANG DIGUI 7B     
1 65107U 25168B   25222.55077401  .00000003  00000+0  10592-3 0  9995
2 65107  50.0018  33.3388 0009742 241.8851 118.1067 13.98291105   850
